{
  "norad_id": 64929,
  "name": "STARLINK-34290",
  "history": [
    {
      "epoch": "2026-05-04T14:29:11.389920Z",
      "apogee_km": 476.38311143529154,
      "perigee_km": 474.01596899430024,
      "latitude_deg": 3.062495684526871e-05,
      "longitude_deg": 6.217300757692148,
      "height_km": 476.0939657111182,
      "semi_major_axis_km": 6853.336540214796,
      "eccentricity": 0.0001727,
      "inclination_deg": 53.1599,
      "raan_deg": 86.0053,
      "arg_perigee_deg": 89.855,
      "mean_anomaly_deg": 270.2649,
      "mean_motion_rev_day": 15.30205201
    },
    {
      "epoch": "2026-05-05T13:59:59.418240Z",
      "apogee_km": 476.8815668274383,
      "perigee_km": 473.5412448144416,
      "latitude_deg": -3.104637843914533e-05,
      "longitude_deg": 8.000974533034498,
      "height_km": 475.9329861738934,
      "semi_major_axis_km": 6853.34840582094,
      "eccentricity": 0.0002437,
      "inclination_deg": 53.1589,
      "raan_deg": 81.4548,
      "arg_perigee_deg": 83.9954,
      "mean_anomaly_deg": 276.1324,
      "mean_motion_rev_day": 15.30201227
    },
    {
      "epoch": "2026-05-06T13:30:46.458144Z",
      "apogee_km": 475.8338160712301,
      "perigee_km": 474.4165614505946,
      "latitude_deg": -1.3120193052692069e-05,
      "longitude_deg": 9.78943720095522,
      "height_km": 476.20809505333824,
      "semi_major_axis_km": 6853.262188760912,
      "eccentricity": 0.0001034,
      "inclination_deg": 53.1588,
      "raan_deg": 76.9049,
      "arg_perigee_deg": 105.0985,
      "mean_anomaly_deg": 255.013,
      "mean_motion_rev_day": 15.30230103
    },
    {
      "epoch": "2026-05-07T20:51:52.355808Z",
      "apogee_km": 476.0111786157131,
      "perigee_km": 474.5870345927606,
      "latitude_deg": -7.239650361182603e-05,
      "longitude_deg": -107.83885126864055,
      "height_km": 476.32325611409004,
      "semi_major_axis_km": 6853.436106604237,
      "eccentricity": 0.0001039,
      "inclination_deg": 53.1581,
      "raan_deg": 70.8388,
      "arg_perigee_deg": 100.1877,
      "mean_anomaly_deg": 259.924,
      "mean_motion_rev_day": 15.30171855
    },
    {
      "epoch": "2026-05-08T20:22:40.645056Z",
      "apogee_km": 475.8341057729549,
      "perigee_km": 474.5484213907075,
      "latitude_deg": 3.2614717756020807e-05,
      "longitude_deg": -106.05654265659227,
      "height_km": 476.2006502597985,
      "semi_major_axis_km": 6853.328263581831,
      "eccentricity": 9.38e-05,
      "inclination_deg": 53.1579,
      "raan_deg": 66.2879,
      "arg_perigee_deg": 99.9499,
      "mean_anomaly_deg": 260.1608,
      "mean_motion_rev_day": 15.30207973
    }
  ]
}